#cP2016 12 21 12  0  0.00000000     192 ORBIT IGb08 HLM  IGS
## 1928 302400.00000000   900.00000000 57743 0.5000000000000
+   31   G01G02G03G05G06G07G08G09G10G11G12G13G14G15G16G17G18
+        G19G20G21G22G23G24G25G26G27G28G29G30G31G32  0  0  0
+          0  0  0  0  0  0  0  0  0  0  0  0  0  0  0  0  0
+          0  0  0  0  0  0  0  0  0  0  0  0  0  0  0  0  0
+          0  0  0  0  0  0  0  0  0  0  0  0  0  0  0  0  0
++         3  3  3  3  3  4  3  3  3  4  3  4  4  3  4  4  3
++         4  4  4  3  4  4  3  3  3  4  3  4  3  3  0  0  0
++         0  0  0  0  0  0  0  0  0  0  0  0  0  0  0  0  0
++         0  0  0  0  0  0  0  0  0  0  0  0  0  0  0  0  0
++         0  0  0  0  0  0  0  0  0  0  0  0  0  0  0  0  0
%c G  cc GPS ccc cccc cccc cccc cccc ccccc ccccc ccccc ccccc
%c cc cc ccc ccc cccc cccc cccc cccc ccccc ccccc ccccc ccccc
%f  1.2500000  1.025000000  0.00000000000  0.000000000000000
%f  0.0000000  0.000000000  0.00000000000  0.000000000000000
%i    0    0    0    0      0      0      0      0         0
%i    0    0    0    0      0      0      0      0         0
/* ULTRA ORBIT COMBINATION 19284_12 (57744.500) FROM:       
/* cou emu esu gfu siu usu whu                              
/* REFERENCED TO emu CLOCK AND TO WEIGHTED MEAN POLE:       
/* PCV:IGS08_1927 OL/AL:FES2004  NONE     Y  ORB:CMB CLK:CMB
*  2016 12 22  5 15  0.00000000
PG01  14171.208693 -22066.500307   3144.350907     44.414082  5  5  6 222       
PG02 -17229.750822   4055.473632 -19217.855058    506.558476  3  7  7 196       
PG03  15854.085030 -12674.295987 -17131.840299   -103.554729  2  5  6 210       
PG05 -26562.324690   2164.844136    950.287996    -70.704709  2  6  6 199       
PG06 -12152.796629  -9192.648373 -21739.123803    289.138439  5  8  6 204       
PG07   4335.266023 -23638.223677  10992.304749    399.882751  7  3  5 210       
PG08  11659.892125  -9781.027130  21823.178568    -43.274673  9  5  4 197       
PG09  -5623.781587 -23400.280939 -11257.875509    268.382757  9  2  5 150       
PG10  17151.816646  11160.081559  16996.735587   -115.769184  9  7  4 192       
PG11  11253.334420 -20787.204506  11576.008102   -670.808023  6  4  7  95       
PG12 -17458.743459  10820.885009 -16854.909479    389.323233  3  8  8 222       
PG13 -16232.820781   -743.564252  20872.733683    -61.219095 10  7 11 152       
PG14  17824.930151  15261.160276 -12328.194589    -50.622130  6 10  9 177       
PG15 -11677.958001  10740.030921  21127.276009   -338.193740  8  6 10 210       
PG16  26757.710548    279.938113    924.438475     20.303873  2  5  3 195       
PG17 -15616.097478 -20998.657635  -4703.955483   -196.419750  6  7  8 227       
PG18   5641.681723  15644.299747  21294.297379    585.934986  7  8  7 186       
PG19 -17225.970892 -16438.629311 -11693.626565   -517.542851  6 10 10 198       
PG20 -17279.686537  13535.381820  14805.251164    451.911436 10 10  6 215       
PG21    935.442047  22608.685582  14528.231990   -528.002417  9  8  6 203       
PG22  20802.497065 -10958.360772 -12205.260021    154.899526  6 10  9 205       
PG23   5881.766368 -16774.366073 -19385.421708   -200.449975 11 10  8 208       
PG24 -15026.556541  20869.682372   6069.953283    -27.903552  5  9  7 220       
PG25  -3288.155294  14875.282888 -21863.690904   -304.067609  6  6  3 168       
PG26  24427.321167   5156.615781  -9154.443207   -512.688250  5  7  6 174       
PG27  18155.466151   4545.110781  18882.398846    182.762388  5  2  5 162       
PG28 -13509.105531 -13221.313691  19306.858287    576.207739  7  4  2 202       
PG29   2187.754919  22708.343273 -13620.098554    637.468515  8  8  8 245       
PG30  -4906.944941 -17960.213583  18898.971483    159.466380 10  4    179       
PG31  12837.867658   7744.322100 -21828.204716    229.649312  1  8  4 224       
PG32  16321.106291  20652.499974  -3641.673538   -250.524262  5  7  7 202       
*  2016 12 22  5 30  0.00000000
PG01  14164.171166 -21473.014305   5961.933378     44.415099  5  5  6 222       
PG02 -16419.070534   1827.821710 -20249.686978    506.552866  3  7  7 195       
PG03  17712.964798 -12637.132069 -15230.588720   -103.555921  2  5  6 209       
PG05 -26544.430107   1880.770572  -1863.751095    -70.702872  3  6  6 199       
PG06 -11053.638790 -11396.922318 -21277.177459    289.142883  6  8  6 207       
PG07   5053.917434 -24507.404840   8407.704654    399.879328  7  6  5 209       
PG08  13079.072334  -7742.047618  21842.897385    -43.276461  8  5  4 195       
PG09  -4630.149358 -22362.547660 -13585.057070    268.389368  9  1  4 156       
PG10  15135.915686  11460.538858  18625.796432   -115.768727  9  7  4 192       
PG11  11503.526850 -19224.913283  13723.764459   -670.805539  6  5  7  83       
PG12 -19251.903383  10725.078861 -14804.828718    389.323364  2  7  7 222       
PG13 -17249.949943  -2868.376987  19849.240420    -61.220547  9  8 11 153       
PG14  18290.234322  16494.307016  -9879.204214    -50.623785  7 10  9 181       
PG15 -13209.660842   8810.711414  21151.043393   -338.195000  8  7 10 209       
PG16  26710.600338    420.640835  -1964.160793     20.305305  3  6  2 190       
PG17 -15668.234185 -21450.246942  -1855.406309   -196.419272  5  7  8 226       
PG18   3311.476317  15933.695022  21554.656392    585.937647  7  7  6 185       
PG19 -17610.243495 -17557.086802  -9136.470039   -517.542105  6  9 10 197       
PG20 -18907.404724  13532.292364  12691.519633    451.912751 10 10  5 213       
PG21    133.306388  23824.426930  12313.717708   -528.001405  9  8  6 199       
PG22  22126.713495 -10799.590049  -9842.226817    154.889375  5 10  9 205       
PG23   7314.758663 -14925.546903 -20411.249067   -200.450943 11 10  8 202       
PG24 -14942.483766  19962.397405   8737.722735    -27.903555  5 10  7 217       
PG25  -5723.367184  15000.128866 -21246.626019   -304.073679  6  6  3 168       
PG26  23260.393001   5479.232482 -11655.503455   -512.690770  5  7  6 181       
PG27  19230.313693   6312.624686  17259.458937    182.767235  5  2  5 155       
PG28 -11354.058812 -13276.214523  20653.573479    576.210381  7  6  4 202       
PG29   1196.355850  21346.567994 -15772.490916    637.466872  9  8  7 245       
PG30  -3746.374638 -19695.843059  17363.667491    159.466884 10  7  3 186       
PG31  11647.104784   9945.668230 -21569.428166    229.647286  2  8  4 224       
PG32  16253.473661  21009.494298   -806.768224   -250.538353  6  7  7 200       
*  2016 12 22  5 45  0.00000000
PG01  14066.821283 -20588.494611   8675.090310     44.416168  6  5  6 222       
PG02 -15683.272380   -526.671652 -20915.802235    506.547137  3  7  8 189       
PG03  19343.381517 -12665.908216 -13067.215750   -103.557136  2  5  7 211       
PG05 -26229.573815   1550.921348  -4646.133961    -70.701064  3  7  7 202       
PG06 -10100.253620 -13588.511456 -20448.612312    289.147348  6  8  6 212       
PG07   5607.181477 -25135.471496   5675.745006    399.876180  7  4  4 210       
PG08  14592.351329  -5796.478437  21488.892867    -43.278005  8  6  5 194       
PG09  -3430.859137 -21180.337293 -15678.756947    268.395975 10  2  3 153       
PG10  12973.276840  11888.272925  19935.640414   -115.768107 10  8  3 193       
PG11  11818.385054 -17440.284962  15627.500010   -670.802837  6     7 204       
PG12 -20803.006000  10710.186027 -12499.657201    389.323273  2  7  7 222       
PG13 -18308.354972  -4819.104490  18480.050921    -61.222404  8  9 12 149       
PG14  18662.619326  17458.398752  -7259.709091    -50.625411  7 10 10 177       
PG15 -14815.399521   6971.746681  20806.225033   -338.195811  9  8 10 209       
PG16  26349.536336    582.919007  -4819.807069     20.306610  3  6    186       
PG17 -15561.356558 -21630.892454   1024.872148   -196.418703  5  6  8 227       
PG18    986.762986  16336.481556  21462.237460    585.940626  7  5  6 184       
PG19 -17893.557264 -18402.309369  -6420.888290   -517.541574  7  9  9 194       
PG20 -20287.104781  13550.024133  10357.604671    451.914533 10 10  5 211       
PG21   -523.800075  24839.753660   9893.388909   -528.000088  9  8  6 198       
PG22  23182.771146 -10656.676205  -7308.932616    154.879261  6 10  9 203       
PG23   8892.945152 -13074.685841 -21076.309862   -200.452053 10 10  8 201       
PG24 -14798.717335  18776.610824  11252.741500    -27.903398  5 11  7 216       
PG25  -8060.938859  15246.807481 -20266.856037   -304.079738  5  7  3 171       
PG26  21842.912776   5901.156875 -13956.591334   -512.693361  5  7  7 185       
PG27  20275.880578   7859.666323  15340.817935    182.772091  4  2  5 157       
PG28  -9078.529793 -13462.899941  21663.842465    576.213168  7  7  5 202       
PG29      1.837011  19852.830761 -17653.703088    637.464934  9  8  7 246       
PG30  -2757.705667 -21316.674967  15528.303868    159.467364 11  6  3 187       
PG31  10593.859350  12163.852693 -20935.042714    229.645216  3  8  5 225       
PG32  16006.605710  21116.089878   2042.000189   -250.552404  7  7  7 201       
EOF
